start=new Date('2022-08-25T00:00:00.000Z').valueOf();
sats=[{"MEAN_MOTION":"15.08859730","MEAN_MOTION_DOT":"-0.00024999","CENTER_NAME":"EARTH","DECAY_DATE":null,"LAUNCH_DATE":"2022-04-21","MEAN_ELEMENT_THEORY":"SGP4","CLASSIFICATION_TYPE":"U","FILE":"3546663","MEAN_ANOMALY":"109.4892","RA_OF_ASC_NODE":"132.6056","SITE":"AFETR","ECCENTRICITY":"0.00016550","GP_ID":"210936225","ARG_OF_PERICENTER":"61.9288","PERIOD":"95.436","TLE_LINE2":"2 52310  53.2166 132.6056 0001655  61.9288 109.4892 15.08859730  1303","OBJECT_ID":"2022-041BB","REF_FRAME":"TEME","APOAPSIS":"540.830","MEAN_MOTION_DDOT":"0.0000000000000","COUNTRY_CODE":"US","OBJECT_TYPE":"PAYLOAD","EPHEMERIS_TYPE":"0","BSTAR":"-0.00155720000000","REV_AT_EPOCH":"130","OBJECT_NAME":"STARLINK-3688","INCLINATION":"53.2166","ELEMENT_SET_NO":"999","RCS_SIZE":"LARGE","EPOCH":"2022-08-24T22:00:00.999936","PERIAPSIS":"538.540","SEMIMAJOR_AXIS":"6917.820","TLE_LINE1":"1 52310U 22041BB  22236.91667824 -.00024999  00000-0 -15572-2 0  9995","NORAD_CAT_ID":"52310","TIME_SYSTEM":"UTC"},{"TLE_LINE1":"1 52311U 22041BC  22236.91667824 -.00024660  00000-0 -16067-2 0  9991","SEMIMAJOR_AXIS":"6922.871","NORAD_CAT_ID":"52311","TIME_SYSTEM":"UTC","INCLINATION":"53.2148","ELEMENT_SET_NO":"999","RCS_SIZE":"LARGE","PERIAPSIS":"543.325","EPOCH":"2022-08-24T22:00:00.999936","EPHEMERIS_TYPE":"0","OBJECT_TYPE":"PAYLOAD","BSTAR":"-0.00160670000000","OBJECT_NAME":"STARLINK-3750","REV_AT_EPOCH":"130","REF_FRAME":"TEME","APOAPSIS":"546.146","MEAN_MOTION_DDOT":"0.0000000000000","COUNTRY_CODE":"US","TLE_LINE2":"2 52311  53.2148 132.5525 0002038  53.3069 129.4530 15.07208874  1309","PERIOD":"95.541","OBJECT_ID":"2022-041BC","RA_OF_ASC_NODE":"132.5525","MEAN_ANOMALY":"129.4530","ECCENTRICITY":"0.00020380","GP_ID":"210936371","SITE":"AFETR","ARG_OF_PERICENTER":"53.3069","FILE":"3546663","CLASSIFICATION_TYPE":"U","MEAN_MOTION_DOT":"-0.00024660","MEAN_MOTION":"15.07208874","DECAY_DATE":null,"CENTER_NAME":"EARTH","LAUNCH_DATE":"2022-04-21","MEAN_ELEMENT_THEORY":"SGP4"},{"SITE":"AFETR","ECCENTRICITY":"0.00023070","GP_ID":"210937246","ARG_OF_PERICENTER":"50.5486","MEAN_ANOMALY":"300.8543","RA_OF_ASC_NODE":"132.5914","PERIOD":"95.437","TLE_LINE2":"2 52312  53.2179 132.5914 0002307  50.5486 300.8543 15.08851586  1301","OBJECT_ID":"2022-041BD","MEAN_ELEMENT_THEORY":"SGP4","LAUNCH_DATE":"2022-04-21","MEAN_MOTION":"15.08851586","MEAN_MOTION_DOT":"-0.00024896","CENTER_NAME":"EARTH","DECAY_DATE":null,"CLASSIFICATION_TYPE":"U","FILE":"3546663","RCS_SIZE":"LARGE","EPOCH":"2022-08-24T22:00:00.999936","PERIAPSIS":"538.114","INCLINATION":"53.2179","ELEMENT_SET_NO":"999","TIME_SYSTEM":"UTC","SEMIMAJOR_AXIS":"6917.845","TLE_LINE1":"1 52312U 22041BD  22236.91667824 -.00024896  00000-0 -15510-2 0  9995","NORAD_CAT_ID":"52312","APOAPSIS":"541.306","MEAN_MOTION_DDOT":"0.0000000000000","COUNTRY_CODE":"US","REF_FRAME":"TEME","BSTAR":"-0.00155100000000","REV_AT_EPOCH":"130","OBJECT_NAME":"STARLINK-3752","OBJECT_TYPE":"PAYLOAD","EPHEMERIS_TYPE":"0"},{"SITE":"AFETR","ECCENTRICITY":"0.00019810","GP_ID":"210936517","ARG_OF_PERICENTER":"55.5483","MEAN_ANOMALY":"301.0328","RA_OF_ASC_NODE":"132.5909","PERIOD":"95.437","TLE_LINE2":"2 52313  53.2177 132.5909 0001981  55.5483 301.0328 15.08848863  1301","OBJECT_ID":"2022-041BE","MEAN_ELEMENT_THEORY":"SGP4","LAUNCH_DATE":"2022-04-21","MEAN_MOTION":"15.08848863","MEAN_MOTION_DOT":"-0.00024673","CENTER_NAME":"EARTH","DECAY_DATE":null,"CLASSIFICATION_TYPE":"U","FILE":"3546663","RCS_SIZE":"LARGE","EPOCH":"2022-08-24T22:00:00.999936","PERIAPSIS":"538.348","INCLINATION":"53.2177","ELEMENT_SET_NO":"999","TIME_SYSTEM":"UTC","SEMIMAJOR_AXIS":"6917.853","TLE_LINE1":"1 52313U 22041BE  22236.91667824 -.00024673  00000-0 -15370-2 0  9993","NORAD_CAT_ID":"52313","APOAPSIS":"541.089","MEAN_MOTION_DDOT":"0.0000000000000","COUNTRY_CODE":"US","REF_FRAME":"TEME","BSTAR":"-0.00153700000000","REV_AT_EPOCH":"130","OBJECT_NAME":"STARLINK-3749","OBJECT_TYPE":"PAYLOAD","EPHEMERIS_TYPE":"0"},{"BSTAR":"0.00276540000000","REV_AT_EPOCH":"130","OBJECT_NAME":"STARLINK-3889","OBJECT_TYPE":"PAYLOAD","EPHEMERIS_TYPE":"0","APOAPSIS":"541.425","MEAN_MOTION_DDOT":"0.0000000000000","COUNTRY_CODE":"US","REF_FRAME":"TEME","TIME_SYSTEM":"UTC","SEMIMAJOR_AXIS":"6917.983","TLE_LINE1":"1 52331U 22045A   22236.91667824  .00043958  00000-0  27654-2 0  9990","NORAD_CAT_ID":"52331","RCS_SIZE":"LARGE","EPOCH":"2022-08-24T22:00:00.999936","PERIAPSIS":"538.271","INCLINATION":"53.2138","ELEMENT_SET_NO":"999","CLASSIFICATION_TYPE":"U","FILE":"3546663","MEAN_ELEMENT_THEORY":"SGP4","LAUNCH_DATE":"2022-04-29","MEAN_MOTION":"15.08806440","MEAN_MOTION_DOT":"0.00043958","CENTER_NAME":"EARTH","DECAY_DATE":null,"PERIOD":"95.440","TLE_LINE2":"2 52331  53.2138 252.6062 0002280  44.6833  11.9021 15.08806440  1305","OBJECT_ID":"2022-045A","SITE":"AFETR","GP_ID":"210937080","ECCENTRICITY":"0.00022800","ARG_OF_PERICENTER":"44.6833","RA_OF_ASC_NODE":"252.6062","MEAN_ANOMALY":"11.9021"},{"BSTAR":"0.00292950000000","REV_AT_EPOCH":"130","OBJECT_NAME":"STARLINK-3831","EPHEMERIS_TYPE":"0","OBJECT_TYPE":"PAYLOAD","APOAPSIS":"541.387","MEAN_MOTION_DDOT":"0.0000000000000","COUNTRY_CODE":"US","REF_FRAME":"TEME","TIME_SYSTEM":"UTC","TLE_LINE1":"1 52332U 22045B   22236.91667824  .00046627  00000-0  29295-2 0  9990","SEMIMAJOR_AXIS":"6917.923","NORAD_CAT_ID":"52332","RCS_SIZE":"LARGE","PERIAPSIS":"538.189","EPOCH":"2022-08-24T22:00:00.999936","INCLINATION":"53.2142","ELEMENT_SET_NO":"999","FILE":"3546663","CLASSIFICATION_TYPE":"U","LAUNCH_DATE":"2022-04-29","MEAN_ELEMENT_THEORY":"SGP4","MEAN_MOTION_DOT":"0.00046627","MEAN_MOTION":"15.08826055","DECAY_DATE":null,"CENTER_NAME":"EARTH","TLE_LINE2":"2 52332  53.2142 252.5963 0002311  47.3955 309.2237 15.08826055  1306","PERIOD":"95.438","OBJECT_ID":"2022-045B","GP_ID":"210936932","ECCENTRICITY":"0.00023110","SITE":"AFETR","ARG_OF_PERICENTER":"47.3955","MEAN_ANOMALY":"309.2237","RA_OF_ASC_NODE":"252.5963"},{"RCS_SIZE":"LARGE","PERIAPSIS":"538.717","EPOCH":"2022-08-24T22:00:00.999936","INCLINATION":"53.2141","ELEMENT_SET_NO":"999","TIME_SYSTEM":"UTC","TLE_LINE1":"1 52333U 22045C   22236.91667824  .00046619  00000-0  29311-2 0  9991","SEMIMAJOR_AXIS":"6918.000","NORAD_CAT_ID":"52333","APOAPSIS":"541.014","MEAN_MOTION_DDOT":"0.0000000000000","COUNTRY_CODE":"US","REF_FRAME":"TEME","BSTAR":"0.00293110000000","REV_AT_EPOCH":"130","OBJECT_NAME":"STARLINK-3847","EPHEMERIS_TYPE":"0","OBJECT_TYPE":"PAYLOAD","ECCENTRICITY":"0.00016600","GP_ID":"210936227","SITE":"AFETR","ARG_OF_PERICENTER":"48.0893","RA_OF_ASC_NODE":"252.5963","MEAN_ANOMALY":"328.5724","TLE_LINE2":"2 52333  53.2141 252.5963 0001660  48.0893 328.5724 15.08800780  1303","PERIOD":"95.440","OBJECT_ID":"2022-045C","LAUNCH_DATE":"2022-04-29","MEAN_ELEMENT_THEORY":"SGP4","MEAN_MOTION_DOT":"0.00046619","MEAN_MOTION":"15.08800780","DECAY_DATE":null,"CENTER_NAME":"EARTH","FILE":"3546663","CLASSIFICATION_TYPE":"U"},{"COUNTRY_CODE":"US","MEAN_MOTION_DDOT":"0.0000000000000","APOAPSIS":"541.281","REF_FRAME":"TEME","OBJECT_NAME":"STARLINK-3880","REV_AT_EPOCH":"130","BSTAR":"0.00266770000000","EPHEMERIS_TYPE":"0","OBJECT_TYPE":"PAYLOAD","PERIAPSIS":"538.436","EPOCH":"2022-08-24T22:00:00.999936","RCS_SIZE":"LARGE","ELEMENT_SET_NO":"999","INCLINATION":"53.2143","TIME_SYSTEM":"UTC","NORAD_CAT_ID":"52334","TLE_LINE1":"1 52334U 22045D   22236.91667824  .00042381  00000-0  26677-2 0  9996","SEMIMAJOR_AXIS":"6917.994","LAUNCH_DATE":"2022-04-29","MEAN_ELEMENT_THEORY":"SGP4","DECAY_DATE":null,"CENTER_NAME":"EARTH","MEAN_MOTION_DOT":"0.00042381","MEAN_MOTION":"15.08802897","FILE":"3546663","CLASSIFICATION_TYPE":"U","ARG_OF_PERICENTER":"40.7874","GP_ID":"210936373","ECCENTRICITY":"0.00020560","SITE":"AFETR","MEAN_ANOMALY":"35.7974","RA_OF_ASC_NODE":"252.6090","OBJECT_ID":"2022-045D","TLE_LINE2":"2 52334  53.2143 252.6090 0002056  40.7874  35.7974 15.08802897  1301","PERIOD":"95.440"},{"MEAN_ELEMENT_THEORY":"SGP4","LAUNCH_DATE":"2022-04-29","CENTER_NAME":"EARTH","DECAY_DATE":null,"MEAN_MOTION":"15.08824832","MEAN_MOTION_DOT":"0.00040353","CLASSIFICATION_TYPE":"U","FILE":"3546663","ARG_OF_PERICENTER":"52.6740","SITE":"AFETR","GP_ID":"210937248","ECCENTRICITY":"0.00019100","RA_OF_ASC_NODE":"252.6134","MEAN_ANOMALY":"43.9671","OBJECT_ID":"2022-045E","PERIOD":"95.439","TLE_LINE2":"2 52335  53.2150 252.6134 0001910  52.6740  43.9671 15.08824832  1309","COUNTRY_CODE":"US","MEAN_MOTION_DDOT":"0.0000000000000","APOAPSIS":"541.113","REF_FRAME":"TEME","REV_AT_EPOCH":"130","OBJECT_NAME":"STARLINK-3814","BSTAR":"0.00254010000000","OBJECT_TYPE":"PAYLOAD","EPHEMERIS_TYPE":"0","EPOCH":"2022-08-24T22:00:00.999936","PERIAPSIS":"538.470","RCS_SIZE":"LARGE","ELEMENT_SET_NO":"999","INCLINATION":"53.2150","TIME_SYSTEM":"UTC","NORAD_CAT_ID":"52335","SEMIMAJOR_AXIS":"6917.927","TLE_LINE1":"1 52335U 22045E   22236.91667824  .00040353  00000-0  25401-2 0  9998"},{"MEAN_ELEMENT_THEORY":"SGP4","LAUNCH_DATE":"2022-04-29","MEAN_MOTION_DOT":"0.00005731","MEAN_MOTION":"15.08837725","DECAY_DATE":null,"CENTER_NAME":"EARTH","FILE":"3546663","CLASSIFICATION_TYPE":"U","ECCENTRICITY":"0.00018530","GP_ID":"210936519","SITE":"AFETR","ARG_OF_PERICENTER":"49.0668","MEAN_ANOMALY":"82.3873","RA_OF_ASC_NODE":"252.6124","TLE_LINE2":"2 52336  53.2152 252.6124 0001853  49.0668  82.3873 15.08837725  1302","PERIOD":"95.438","OBJECT_ID":"2022-045F","MEAN_MOTION_DDOT":"0.0000000000000","APOAPSIS":"541.034","COUNTRY_CODE":"US","REF_FRAME":"TEME","BSTAR":"0.00037792000000","REV_AT_EPOCH":"130","OBJECT_NAME":"STARLINK-3823","EPHEMERIS_TYPE":"0","OBJECT_TYPE":"PAYLOAD","RCS_SIZE":"LARGE","PERIAPSIS":"538.470","EPOCH":"2022-08-24T22:00:00.999936","INCLINATION":"53.2152","ELEMENT_SET_NO":"999","TIME_SYSTEM":"UTC","TLE_LINE1":"1 52336U 22045F   22236.91667824  .00005731  00000-0  37792-3 0  9997","SEMIMAJOR_AXIS":"6917.887","NORAD_CAT_ID":"52336"}];
